$$SOE
2459580.500000000, A.D. 2022-Jan-01 00:00:00.0000, 2.540832699118566E+07, 4.025388009892955E+08, 3.342147634795287E+07,
2459587.500000000, A.D. 2022-Jan-08 00:00:00.0000, 1.396586094304151E+07, 4.013178062011157E+08, 3.402360958834964E+07,
2459594.500000000, A.D. 2022-Jan-15 00:00:00.0000, 2.513013758135483E+06, 3.997991519569530E+08, 3.460050687672418E+07,
2459601.500000000, A.D. 2022-Jan-22 00:00:00.0000, -8.941740122254563E+06, 3.979801854068562E+08, 3.515141296820077E+07,
2459608.500000000, A.D. 2022-Jan-29 00:00:00.0000, -2.038970762124034E+07, 3.958585086295009E+08, 3.567558118098471E+07,
2459615.500000000, A.D. 2022-Feb-05 00:00:00.0000, -3.182198574470348E+07, 3.934319937037089E+08, 3.617227531397173E+07,
2459622.500000000, A.D. 2022-Feb-12 00:00:00.0000, -4.322946926508623E+07, 3.906987967936043E+08, 3.664077135729846E+07,
2459629.500000000, A.D. 2022-Feb-19 00:00:00.0000, -5.460285873855019E+07, 3.876573735411153E+08, 3.708035930710804E+07,
2459636.500000000, A.D. 2022-Feb-26 00:00:00.0000, -6.593267020426576E+07, 3.843064949538493E+08, 3.749034514002445E+07,
2459643.500000000, A.D. 2022-Mar-05 00:00:00.0000, -7.720924644052783E+07, 3.806452630739310E+08, 3.787005287557605E+07,
2459650.500000000, A.D. 2022-Mar-12 00:00:00.0000, -8.842276958352512E+07, 3.766731262591028E+08, 3.821882669321899E+07,
2459657.500000000, A.D. 2022-Mar-19 00:00:00.0000, -9.956327505711195E+07, 3.723898939956489E+08, 3.853603309110191E+07,
2459664.500000000, A.D. 2022-Mar-26 00:00:00.0000, -1.106206668012185E+08, 3.677957511233704E+08, 3.882106307439071E+07,
2459671.500000000, A.D. 2022-Apr-02 00:00:00.0000, -1.215847337307811E+08, 3.628912712981335E+08, 3.907333435170771E+07,
2459678.500000000, A.D. 2022-Apr-09 00:00:00.0000, -1.324451671416582E+08, 3.576774295740982E+08, 3.929229350348189E+07,
2459685.500000000, A.D. 2022-Apr-16 00:00:00.0000, -1.431915786834690E+08, 3.521556146343734E+08, 3.947741813039328E+07,
2459692.500000000, A.D. 2022-Apr-23 00:00:00.0000, -1.538135201331106E+08, 3.463276416296210E+08, 3.962821917373031E+07,
2459699.500000000, A.D. 2022-Apr-30 00:00:00.0000, -1.643005067871111E+08, 3.401957632546888E+08, 3.974424338144253E+07,
2459706.500000000, A.D. 2022-May-07 00:00:00.0000, -1.746420413424554E+08, 3.337626769584197E+08, 3.982507546198185E+07,
2459713.500000000, A.D. 2022-May-14 00:00:00.0000, -1.848276368018791E+08, 3.270315311986622E+08, 3.987034003130823E+07,
2459720.500000000, A.D. 2022-May-21 00:00:00.0000, -1.948468403443371E+08, 3.200059313872983E+08, 3.987970358583061E+07,
2459727.500000000, A.D. 2022-May-28 00:00:00.0000, -2.046892585305705E+08, 3.126899444554881E+08, 3.985287645038375E+07,
2459734.500000000, A.D. 2022-Jun-04 00:00:00.0000, -2.143445834446663E+08, 3.050881016209050E+08, 3.978961463355732E+07,
2459741.500000000, A.D. 2022-Jun-11 00:00:00.0000, -2.238026194924948E+08, 2.972053992643001E+08, 3.968972156076218E+07,
2459748.500000000, A.D. 2022-Jun-18 00:00:00.0000, -2.330533106714710E+08, 2.890472978462044E+08, 3.955304966636577E+07,
2459755.500000000, A.D. 2022-Jun-25 00:00:00.0000, -2.420867681238417E+08, 2.806197187618378E+08, 3.937950182377276E+07,
2459762.500000000, A.D. 2022-Jul-02 00:00:00.0000, -2.508932976709341E+08, 2.719290390148125E+08, 3.916903258077788E+07,
2459769.500000000, A.D. 2022-Jul-09 00:00:00.0000, -2.594634267611122E+08, 2.629820838491968E+08, 3.892164916477843E+07,
2459776.500000000, A.D. 2022-Jul-16 00:00:00.0000, -2.677879307039475E+08, 2.537861184029087E+08, 3.863741233854538E+07,
2459783.500000000, A.D. 2022-Jul-23 00:00:00.0000, -2.758578602042038E+08, 2.443488384611221E+08, 3.831643730338661E+07,
2459790.500000000, A.D. 2022-Jul-30 00:00:00.0000, -2.836645699222950E+08, 2.346783569790388E+08, 3.795889435832468E+07,
2459797.500000000, A.D. 2022-Aug-06 00:00:00.0000, -2.911997442674657E+08, 2.247831870595306E+08, 3.756500902960922E+07,
2459804.500000000, A.D. 2022-Aug-13 00:00:00.0000, -2.984554210611705E+08, 2.146722241947595E+08, 3.713506196490273E+07,
2459811.500000000, A.D. 2022-Aug-20 00:00:00.0000, -3.054240144642509E+08, 2.043547273505871E+08, 3.666938869151573E+07,
2459818.500000000, A.D. 2022-Aug-27 00:00:00.0000, -3.120983369275509E+08, 1.938402982701563E+08, 3.616837917156256E+07,
2459825.500000000, A.D. 2022-Sep-03 00:00:00.0000, -3.184716197543935E+08, 1.831388590056641E+08, 3.563247712270359E+07,
2459832.500000000, A.D. 2022-Sep-10 00:00:00.0000, -3.245375320334107E+08, 1.722606278393226E+08, 3.506217910070745E+07,
2459839.500000000, A.D. 2022-Sep-17 00:00:00.0000, -3.302901977737333E+08, 1.612160937449400E+08, 3.445803334543904E+07,
2459846.500000000, A.D. 2022-Sep-24 00:00:00.0000, -3.357242110575308E+08, 1.500159895048743E+08, 3.382063838677882E+07,
2459853.500000000, A.D. 2022-Oct-01 00:00:00.0000, -3.408346488628207E+08, 1.386712636344123E+08, 3.315064139480501E+07,
2459860.500000000, A.D. 2022-Oct-08 00:00:00.0000, -3.456170810645839E+08, 1.271930518170628E+08, 3.244873629014646E+07,
2459867.500000000, A.D. 2022-Oct-15 00:00:00.0000, -3.500675784876092E+08, 1.155926492390534E+08, 3.171566181123128E+07,
2459874.500000000, A.D. 2022-Oct-22 00:00:00.0000, -3.541827211614028E+08, 1.038814823374402E+08, 3.095219961653218E+07,
2459881.500000000, A.D. 2022-Oct-29 00:00:00.0000, -3.579596042682291E+08, 9.207107757517816E+07, 3.015917199784322E+07,
2459888.500000000, A.D. 2022-Nov-05 00:00:00.0000, -3.613958396846095E+08, 8.017303018946725E+07, 2.933743925343798E+07,
2459895.500000000, A.D. 2022-Nov-12 00:00:00.0000, -3.644895551003522E+08, 6.819897437582323E+07, 2.848789702268312E+07,
2459902.500000000, A.D. 2022-Nov-19 00:00:00.0000, -3.672393914798843E+08, 5.616055414348872E+07, 2.761147358899432E+07,
2459909.500000000, A.D. 2022-Nov-26 00:00:00.0000, -3.696444986676288E+08, 4.406939462896933E+07, 2.670912711422379E+07,
2459916.500000000, A.D. 2022-Dec-03 00:00:00.0000, -3.717045290507619E+08, 3.193707402944904E+07, 2.578184280812589E+07,
2459923.500000000, A.D. 2022-Dec-10 00:00:00.0000, -3.734196293292299E+08, 1.977509633513844E+07, 2.483063005006713E+07,
2459930.500000000, A.D. 2022-Dec-17 00:00:00.0000, -3.747904304786607E+08, 7.594864982357945E+06, 2.385651947828525E+07,
2459937.500000000, A.D. 2022-Dec-24 00:00:00.0000, -3.758180359198252E+08, -4.592342506162424E+06, 2.286056005045399E+07,
2459944.500000000, A.D. 2022-Dec-31 00:00:00.0000, -3.765040076702262E+08, -1.677539866937413E+07, 2.184381607001490E+07,
2459951.500000000, A.D. 2023-Jan-07 00:00:00.0000, -3.768503504958689E+08, -2.894334798150210E+07, 2.080736426321246E+07,
2459958.500000000, A.D. 2023-Jan-14 00:00:00.0000, -3.768594961770254E+08, -4.108542587139753E+07, 1.975229114426103E+07,
2459965.500000000, A.D. 2023-Jan-21 00:00:00.0000, -3.765342886862709E+08, -5.319107799483667E+07, 1.867969048375385E+07,
2459972.500000000, A.D. 2023-Jan-28 00:00:00.0000, -3.758779667674287E+08, -6.524997990414683E+07, 1.759066054204151E+07,
2459979.500000000, A.D. 2023-Feb-04 00:00:00.0000, -3.748941442754890E+08, -7.725205405080943E+07, 1.648630134683218E+07,
2459986.500000000, A.D. 2023-Feb-11 00:00:00.0000, -3.735867902201651E+08, -8.918748429650839E+07, 1.536771217479277E+07,
2459993.500000000, A.D. 2023-Feb-18 00:00:00.0000, -3.719602087241594E+08, -1.010467287545138E+08, 1.423598918508349E+07,
2460000.500000000, A.D. 2023-Feb-25 00:00:00.0000, -3.700190187786444E+08, -1.128205311342381E+08, 1.309222317562212E+07,
2460007.500000000, A.D. 2023-Mar-04 00:00:00.0000, -3.677681338318868E+08, -1.244999305924704E+08, 1.193749746098092E+07,
2460014.500000000, A.D. 2023-Mar-11 00:00:00.0000, -3.652127413120911E+08, -1.360762701245897E+08, 1.077288587459970E+07,
2460021.500000000, A.D. 2023-Mar-18 00:00:00.0000, -3.623582821587933E+08, -1.475412035895330E+08, 9.599450890788078E+06,
2460028.500000000, A.D. 2023-Mar-25 00:00:00.0000, -3.592104302722459E+08, -1.588867014688584E+08, 8.418241846506141E+06,
2460035.500000000, A.D. 2023-Apr-01 00:00:00.0000, -3.557750715595444E+08, -1.701050550267739E+08, 7.230293257371359E+06,
2460042.500000000, A.D. 2023-Apr-08 00:00:00.0000, -3.520582832855939E+08, -1.811888777122542E+08, 6.036623384484679E+06,
2460049.500000000, A.D. 2023-Apr-15 00:00:00.0000, -3.480663161480809E+08, -1.921311049812691E+08, 4.838233174904503E+06,
2460056.500000000, A.D. 2023-Apr-22 00:00:00.0000, -3.438055773412679E+08, -2.029249956684500E+08, 3.636105158272609E+06,
2460063.500000000, A.D. 2023-Apr-29 00:00:00.0000, -3.392826119390437E+08, -2.135641327348565E+08, 2.431202230053365E+06,
2460070.500000000, A.D. 2023-May-06 00:00:00.0000, -3.345040844113923E+08, -2.240424216906040E+08, 1.224466625024498E+06,
2460077.500000000, A.D. 2023-May-13 00:00:00.0000, -3.294767612947667E+08, -2.343540876678261E+08, 1.681909341806173E+04,
2460084.500000000, A.D. 2023-May-20 00:00:00.0000, -3.242074948192275E+08, -2.444936717190505E+08, -1.190841786876172E+06,
2460091.500000000, A.D. 2023-May-27 00:00:00.0000, -3.187032073306037E+08, -2.544560264535790E+08, -2.397640187720567E+06,
2460098.500000000, A.D. 2023-Jun-03 00:00:00.0000, -3.129708764751530E+08, -2.642363110652203E+08, -3.602723506724998E+06,
2460105.500000000, A.D. 2023-Jun-10 00:00:00.0000, -3.070175211394465E+08, -2.738299858397720E+08, -4.805262751104400E+06,
2460112.500000000, A.D. 2023-Jun-17 00:00:00.0000, -3.008501880638346E+08, -2.832328062731306E+08, -6.004452848531544E+06,
2460119.500000000, A.D. 2023-Jun-24 00:00:00.0000, -2.944759388087994E+08, -2.924408168128844E+08, -7.199512915902764E+06,
2460126.500000000, A.D. 2023-Jul-01 00:00:00.0000, -2.879018368144994E+08, -3.014503434625610E+08, -8.389686447771236E+06,
2460133.500000000, A.D. 2023-Jul-08 00:00:00.0000, -2.811349362173519E+08, -3.102579844921337E+08, -9.574241210067317E+06,
2460140.500000000, A.D. 2023-Jul-15 00:00:00.0000, -2.741822736882557E+08, -3.188606021478575E+08, -1.075246895971540E+07,
2460147.500000000, A.D. 2023-Jul-22 00:00:00.0000, -2.670508597582211E+08, -3.272553164556122E+08, -1.192368540403703E+07,
$$EOE